*******************************************************************************
JPL/HORIZONS                 86 Semele (A866 AA)           2020-Jun-20 08:07:16
Rec #:      86 (+COV) Soln.date: 2020-May-20_00:58:15   # obs: 3045 (1871-2020)
 
IAU76/J2000 helio. ecliptic osc. elements (au, days, deg., period=Julian yrs):
 
  EPOCH=  2455193.5 ! 2009-Dec-28.00 (TDB)         Residual RMS= .32403
   EC= .2084026267215113   QR= 2.465362575235047   TP= 2454631.7680848837
   OM= 86.44581653309008   W=  308.1356385591632   IN= 4.820936707727886
   A= 3.114414800322635    MA= 100.7322399462602   ADIST= 3.763467025410224
   PER= 5.49633            N= .179324397           ANGMOM= .029691195
   DAN= 2.63947            DDN= 3.41918            L= 34.6801355
   B= -3.7902035           MOID= 1.47528994        TP= 2008-Jun-14.2680848837
 
Asteroid physical parameters (km, seconds, rotational period in hours):
   GM= n.a.                RAD= 54.9645            ROTPER= 16.634
   H= 8.7                  G= .150                 B-V= .703
                           ALBEDO= .056            STYP= C
 
ASTEROID comments: 
1: soln ref.= JPL#98, OCC=0
2: source=ORB
*******************************************************************************
 
 
*******************************************************************************
Ephemeris / WWW_USER Sat Jun 20 08:07:16 2020 Pasadena, USA      / Horizons
*******************************************************************************
Target body name: 86 Semele (A866 AA)             {source: JPL#98}
Center body name: Solar System Barycenter (0)     {source: DE431}
Center-site name: BODY CENTER
*******************************************************************************
Start time      : A.D. 1969-Jun-28 00:00:00.0000 TDB
Stop  time      : A.D. 2071-May-04 00:00:00.0000 TDB
Step-size       : 7200 minutes
*******************************************************************************
Center geodetic : 0.00000000,0.00000000,0.0000000 {E-lon(deg),Lat(deg),Alt(km)}
Center cylindric: 0.00000000,0.00000000,0.0000000 {E-lon(deg),Dxy(km),Dz(km)}
Center radii    : (undefined)                                                  
Small perturbers: Yes                             {source: SB431-N16}
Output units    : AU-D
Output type     : GEOMETRIC cartesian states
Output format   : 2 (position and velocity)
Reference frame : Ecliptic of J2000.0
*******************************************************************************
Initial IAU76/J2000 heliocentric ecliptic osculating elements (au, days, deg.):
  EPOCH=  2455193.5 ! 2009-Dec-28.00 (TDB)         Residual RMS= .32403        
   EC= .2084026267215113   QR= 2.465362575235047   TP= 2454631.7680848837      
   OM= 86.44581653309008   W=  308.1356385591632   IN= 4.820936707727886       
  Equivalent ICRF heliocentric equatorial cartesian coordinates (au, au/d):
   X=-3.081194292014937E+00  Y= 1.088852643606495E+00  Z= 7.621928976017431E-01
  VX=-5.032296443425628E-03 VY=-7.011503216347279E-03 VZ=-2.620750280760334E-03
Asteroid physical parameters (km, seconds, rotational period in hours):        
   GM= n.a.                RAD= 54.9645            ROTPER= 16.634              
   H= 8.7                  G= .150                 B-V= .703                   
                           ALBEDO= .056            STYP= C                     
*******************************************************************************
            JDTDB,            Calendar Date (TDB),        delta-T,                      X,                      Y,                      Z,                     VX,                     VY,                     VZ,
******************************************************************************************************************************************************************************************************************
$$SOE
2456780.500000000, A.D. 2014-May-03 00:00:00.0000,      67.185443,  7.405565005152411E-01,  2.444517489875938E+00, -4.942265075609616E-02, -1.069331439732280E-02,  4.599953014124220E-03,  9.249880388426266E-04,
2456785.500000000, A.D. 2014-May-08 00:00:00.0000,      67.185371,  6.869304232266854E-01,  2.466975232934752E+00, -4.478715062661360E-02, -1.075624732703779E-02,  4.383091273288984E-03,  9.291385103094131E-04,
2456790.500000000, A.D. 2014-May-13 00:00:00.0000,      67.185288,  6.330026876015151E-01,  2.488348002242760E+00, -4.013199734794026E-02, -1.081398422344292E-02,  4.165989191096829E-03,  9.328499793810176E-04,
2456795.500000000, A.D. 2014-May-18 00:00:00.0000,      67.185195,  5.787991719859947E-01,  2.508634978160503E+00, -3.545937536098624E-02, -1.086656669505458E-02,  3.948798969653443E-03,  9.361267452982943E-04,
2456800.500000000, A.D. 2014-May-23 00:00:00.0000,      67.185095,  5.243455337101092E-01,  2.527836092531772E+00, -3.077144656866310E-02, -1.091404149321301E-02,  3.731668969855907E-03,  9.389735199224217E-04,
2456805.500000000, A.D. 2014-May-28 00:00:00.0000,      67.184989,  4.696671840773133E-01,  2.545952009040043E+00, -2.607034833448969E-02, -1.095646022980784E-02,  3.514743539754035E-03,  9.413954030109472E-04,
2456810.500000000, A.D. 2014-Jun-02 00:00:00.0000,      67.184876,  4.147892647747372E-01,  2.562984102757024E+00, -2.135819160525907E-02, -1.099387909170647E-02,  3.298162863003735E-03,  9.433978573475994E-04,
2456815.500000000, A.D. 2014-Jun-07 00:00:00.0000,      67.184756,  3.597366257158727E-01,  2.578934438983572E+00, -1.663705915812674E-02, -1.102635855357147E-02,  3.082062827349022E-03,  9.449866838606882E-04,
2456820.500000000, A.D. 2014-Jun-12 00:00:00.0000,      67.184629,  3.045338043203790E-01,  2.593805751482597E+00, -1.190900397193331E-02, -1.105396309041017E-02,  2.866574912863798E-03,  9.461679968284616E-04,
2456825.500000000, A.D. 2014-Jun-17 00:00:00.0000,      67.184497,  2.492050062291643E-01,  2.607601420201537E+00, -7.176047722072842E-03, -1.107676089112125E-02,  2.651826099433990E-03,  9.469481992699133E-04,
2456830.500000000, A.D. 2014-Jun-22 00:00:00.0000,      67.184363,  1.937740874467026E-01,  2.620325448578988E+00, -2.440179397744796E-03, -1.109482357425164E-02,  2.437938792827359E-03,  9.473339586187048E-04,
2456835.500000000, A.D. 2014-Jun-27 00:00:00.0000,      67.184228,  1.382645378966478E-01,  2.631982440526655E+00,  2.296645960071533E-03, -1.110822590710279E-02,  2.225030768623657E-03,  9.473321827724565E-04,
2456840.500000000, A.D. 2014-Jul-02 00:00:00.0000,      67.184091,  8.269946637133674E-02,  2.642577577173992E+00,  7.032508401998603E-03, -1.111704552923591E-02,  2.013215133222084E-03,  9.469499966023700E-04,
2456845.500000000, A.D. 2014-Jul-07 00:00:00.0000,      67.183953,  2.710158685076519E-02,  2.652116593458843E+00,  1.176552409750831E-02, -1.112136268132798E-02,  1.802600301100636E-03,  9.461947189999661E-04,
2456850.500000000, A.D. 2014-Jul-12 00:00:00.0000,      67.183814, -2.850679383789077E-02,  2.660605754643240E+00,  1.649384624889053E-02, -1.112125994023152E-02,  1.593289987466153E-03,  9.450738405297841E-04,
2456855.500000000, A.D. 2014-Jul-17 00:00:00.0000,      67.183676, -8.410378705315862E-02,  2.668051832829078E+00,  2.121566589512507E-02, -1.111682196099588E-02,  1.385383215414197E-03,  9.435950017488139E-04,
2456860.500000000, A.D. 2014-Jul-22 00:00:00.0000,      67.183541, -1.396679321010780E-01,  2.674462083544072E+00,  2.592921260913103E-02, -1.110813522651974E-02,  1.178974336741435E-03,  9.417659722434122E-04,
2456865.500000000, A.D. 2014-Jul-27 00:00:00.0000,      67.183411, -1.951782047655030E-01,  2.679844222464311E+00,  3.063275509206047E-02, -1.109528780536072E-02,  9.741530656580875E-04,  9.395946304139009E-04,
2456870.500000000, A.D. 2014-Aug-01 00:00:00.0000,      67.183286, -2.506140246482848E-01,  2.684206402336045E+00,  3.532460166838541E-02, -1.107836911786272E-02,  7.710045245930394E-04,  9.370889440045364E-04,
2456875.500000000, A.D. 2014-Aug-06 00:00:00.0000,      67.183164, -3.059552613604910E-01,  2.687557190153433E+00,  4.000310068551459E-02, -1.105746971045020E-02,  5.696093003693801E-04,  9.342569513973147E-04,
2456880.500000000, A.D. 2014-Aug-11 00:00:00.0000,      67.183047, -3.611822396069299E-01,  2.689905544638136E+00,  4.466664082204410E-02, -1.103268103891956E-02,  3.700435085166763E-04,  9.311067437964988E-04,
2456885.500000000, A.D. 2014-Aug-16 00:00:00.0000,      67.182936, -4.162757432128745E-01,  2.691260794060111E+00,  4.931365130931413E-02, -1.100409526216768E-02,  1.723788656067775E-04,  9.276464483569882E-04,
2456890.500000000, A.D. 2014-Aug-21 00:00:00.0000,      67.182835, -4.712170181455144E-01,  2.691632614441644E+00,  5.394260207074816E-02, -1.097180504621940E-02, -2.331722985952688E-05,  9.238842121514507E-04,
2456895.500000000, A.D. 2014-Aug-26 00:00:00.0000,      67.182744, -5.259877745801002E-01,  2.691031008184725E+00,  5.855200378306294E-02, -1.093590337808071E-02, -2.169816092776731E-04,  9.198281869623119E-04,
2456900.500000000, A.D. 2014-Aug-31 00:00:00.0000,      67.182661, -5.805701880604945E-01,  2.689466283154751E+00,  6.314040786363020E-02, -1.089648338971413E-02, -4.085552397159976E-04,  9.154865149569853E-04,
2456905.500000000, A.D. 2014-Sep-05 00:00:00.0000,      67.182586, -6.349468998054212E-01,  2.686949032249338E+00,  6.770640638846674E-02, -1.085363819234012E-02, -5.979831241416807E-04,  9.108673152625577E-04,
2456910.500000000, A.D. 2014-Sep-10 00:00:00.0000,      67.182521, -6.891010162117277E-01,  2.683490113479070E+00,  7.224863194531082E-02, -1.080746072089410E-02, -7.852141965263801E-04,  9.059786714220796E-04,
2456915.500000000, A.D. 2014-Sep-15 00:00:00.0000,      67.182466, -7.430161076046503E-01,  2.679100630584197E+00,  7.676575742613055E-02, -1.075804358831069E-02, -9.702012124678996E-04,  9.008286197063671E-04,
